{
    "links": {
        "self": "http://www.neowsapp.com/rest/v1/neo/3459797?api_key=iIulBulltgU6a56xZRHN4H3l9WmuAYTsLGpBGhQ2"
    },
    "id": "3459797",
    "neo_reference_id": "3459797",
    "name": "(2009 JM2)",
    "designation": "2009 JM2",
    "nasa_jpl_url": "http://ssd.jpl.nasa.gov/sbdb.cgi?sstr=3459797",
    "absolute_magnitude_h": 19.4,
    "estimated_diameter": {
        "kilometers": {
            "estimated_diameter_min": 0.3503926411,
            "estimated_diameter_max": 0.7835017643
        },
        "meters": {
            "estimated_diameter_min": 350.3926411083,
            "estimated_diameter_max": 783.5017643338
        },
        "miles": {
            "estimated_diameter_min": 0.2177238258,
            "estimated_diameter_max": 0.4868452748
        },
        "feet": {
            "estimated_diameter_min": 1149.5821926537,
            "estimated_diameter_max": 2570.543928497
        }
    },
    "is_potentially_hazardous_asteroid": false,
    "close_approach_data": [
        {
            "close_approach_date": "1998-01-18",
            "close_approach_date_full": "1998-Jan-18 12:02",
            "epoch_date_close_approach": 885124920000,
            "relative_velocity": {
                "kilometers_per_second": "21.9179775919",
                "kilometers_per_hour": "78904.7193310006",
                "miles_per_hour": "49028.3240754209"
            },
            "miss_distance": {
                "astronomical": "0.4385071276",
                "lunar": "170.5792726364",
                "kilometers": "65599732.268778212",
                "miles": "40761783.4828028456"
            },
            "orbiting_body": "Earth"
        },
        {
            "close_approach_date": "2009-05-16",
            "close_approach_date_full": "2009-May-16 15:41",
            "epoch_date_close_approach": 1242488460000,
            "relative_velocity": {
                "kilometers_per_second": "15.4929604663",
                "kilometers_per_hour": "55774.6576785893",
                "miles_per_hour": "34656.2032670101"
            },
            "miss_distance": {
                "astronomical": "0.1103634505",
                "lunar": "42.9313822445",
                "kilometers": "16510137.120650435",
                "miles": "10258923.494168603"
            },
            "orbiting_body": "Earth"
        },
        {
            "close_approach_date": "2011-04-21",
            "close_approach_date_full": "2011-Apr-21 10:52",
            "epoch_date_close_approach": 1303383120000,
            "relative_velocity": {
                "kilometers_per_second": "4.6106611546",
                "kilometers_per_hour": "16598.3801565768",
                "miles_per_hour": "10313.5879367352"
            },
            "miss_distance": {
                "astronomical": "1.5629361169",
                "lunar": "607.9821494741",
                "kilometers": "233811914.034311003",
                "miles": "145283986.4729497214"
            },
            "orbiting_body": "Juptr"
        },
        {
            "close_approach_date": "2024-01-22",
            "close_approach_date_full": "2024-Jan-22 06:26",
            "epoch_date_close_approach": 1705904760000,
            "relative_velocity": {
                "kilometers_per_second": "20.9599529278",
                "kilometers_per_hour": "75455.8305401642",
                "miles_per_hour": "46885.3187042482"
            },
            "miss_distance": {
                "astronomical": "0.4363826549",
                "lunar": "169.7528527561",
                "kilometers": "65281915.677985063",
                "miles": "40564301.4106493494"
            },
            "orbiting_body": "Earth"
        }
    ],
    "orbital_data": {
        "orbit_id": "30",
        "orbit_determination_date": "2017-04-06 09:00:35",
        "first_observation_date": "2009-05-12",
        "last_observation_date": "2009-06-16",
        "data_arc_in_days": 35,
        "observations_used": 570,
        "orbit_uncertainty": "6",
        "minimum_orbit_intersection": ".106929",
        "jupiter_tisserand_invariant": "3.202",
        "epoch_osculation": "2459000.5",
        "eccentricity": ".6022375528205283",
        "semi_major_axis": "2.401301097435034",
        "inclination": "17.35563222982674",
        "ascending_node_longitude": "66.39032162573145",
        "orbital_period": "1359.15302450363",
        "perihelion_distance": ".9551474009305102",
        "perihelion_argument": "118.7084710939982",
        "aphelion_distance": "3.847454793939558",
        "perihelion_time": "2459009.259789993882",
        "mean_anomaly": "357.6797870872933",
        "mean_motion": ".2648708375802453",
        "equinox": "J2000",
        "orbit_class": {
            "orbit_class_type": "APO",
            "orbit_class_description": "Near-Earth asteroid orbits which cross the Earth’s orbit similar to that of 1862 Apollo",
            "orbit_class_range": "a (semi-major axis) > 1.0 AU; q (perihelion) < 1.017 AU"
        }
    },
    "is_sentry_object": false
}